CCSDS_OMM_VERS = 2.0
CREATION_DATE  = 
ORIGINATOR     = 

OBJECT_NAME    = DELTA 2 R/B(1)
OBJECT_ID      = 1990-008B
CENTER_NAME    = EARTH
REF_FRAME      = TEME
TIME_SYSTEM    = UTC
MEAN_ELEMENT_THEORY = SGP/SGP4

EPOCH          = 2026-02-21T00:00:10.842336
MEAN_MOTION    = 15.53535456
ECCENTRICITY   = .0088871
INCLINATION    = 35.6040
RA_OF_ASC_NODE = 284.1803
ARG_OF_PERICENTER = 103.0443
MEAN_ANOMALY   = 258.0231

EPHEMERIS_TYPE = 0
CLASSIFICATION_TYPE = U
NORAD_CAT_ID   = 20453
ELEMENT_SET_NO = 999
REV_AT_EPOCH   = 92353
BSTAR          = .78405E-3
MEAN_MOTION_DOT = .6166E-3
MEAN_MOTION_DDOT = 0

CCSDS_OMM_VERS = 2.0
CREATION_DATE  = 
ORIGINATOR     = 

OBJECT_NAME    = COSMOS 2058
OBJECT_ID      = 1990-010A
CENTER_NAME    = EARTH
REF_FRAME      = TEME
TIME_SYSTEM    = UTC
MEAN_ELEMENT_THEORY = SGP/SGP4

EPOCH          = 2026-02-21T00:41:22.260768
MEAN_MOTION    = 15.11158688
ECCENTRICITY   = .0010645
INCLINATION    = 82.4665
RA_OF_ASC_NODE = 63.8414
ARG_OF_PERICENTER = 40.0076
MEAN_ANOMALY   = 320.1936

EPHEMERIS_TYPE = 0
CLASSIFICATION_TYPE = U
NORAD_CAT_ID   = 20465
ELEMENT_SET_NO = 999
REV_AT_EPOCH   = 93972
BSTAR          = .22884E-3
MEAN_MOTION_DOT = .387E-4
MEAN_MOTION_DDOT = 0

CCSDS_OMM_VERS = 2.0
CREATION_DATE  = 
ORIGINATOR     = 

OBJECT_NAME    = SL-14 R/B
OBJECT_ID      = 1990-010B
CENTER_NAME    = EARTH
REF_FRAME      = TEME
TIME_SYSTEM    = UTC
MEAN_ELEMENT_THEORY = SGP/SGP4

EPOCH          = 2026-02-21T02:16:44.937120
MEAN_MOTION    = 14.83553623
ECCENTRICITY   = .0019793
INCLINATION    = 82.5006
RA_OF_ASC_NODE = 282.9793
ARG_OF_PERICENTER = 359.0835
MEAN_ANOMALY   = 1.0340

EPHEMERIS_TYPE = 0
CLASSIFICATION_TYPE = U
NORAD_CAT_ID   = 20466
ELEMENT_SET_NO = 999
REV_AT_EPOCH   = 92602
BSTAR          = .39178E-4
MEAN_MOTION_DOT = .347E-5
MEAN_MOTION_DDOT = 0

CCSDS_OMM_VERS = 2.0
CREATION_DATE  = 
ORIGINATOR     = 

OBJECT_NAME    = SL-14 R/B
OBJECT_ID      = 1990-018B
CENTER_NAME    = EARTH
REF_FRAME      = TEME
TIME_SYSTEM    = UTC
MEAN_ELEMENT_THEORY = SGP/SGP4

EPOCH          = 2026-02-20T23:04:57.230400
MEAN_MOTION    = 14.82124985
ECCENTRICITY   = .001715
INCLINATION    = 82.5179
RA_OF_ASC_NODE = 238.7275
ARG_OF_PERICENTER = 143.1709
MEAN_ANOMALY   = 217.0687

EPHEMERIS_TYPE = 0
CLASSIFICATION_TYPE = U
NORAD_CAT_ID   = 20511
ELEMENT_SET_NO = 999
REV_AT_EPOCH   = 92010
BSTAR          = .49099E-4
MEAN_MOTION_DOT = .415E-5
MEAN_MOTION_DDOT = 0

CCSDS_OMM_VERS = 2.0
CREATION_DATE  = 
ORIGINATOR     = 

OBJECT_NAME    = HST
OBJECT_ID      = 1990-037B
CENTER_NAME    = EARTH
REF_FRAME      = TEME
TIME_SYSTEM    = UTC
MEAN_ELEMENT_THEORY = SGP/SGP4

EPOCH          = 2026-02-20T12:27:47.538144
MEAN_MOTION    = 15.29189194
ECCENTRICITY   = .0001109
INCLINATION    = 28.4685
RA_OF_ASC_NODE = 157.1051
ARG_OF_PERICENTER = 279.2471
MEAN_ANOMALY   = 80.7999

EPHEMERIS_TYPE = 0
CLASSIFICATION_TYPE = U
NORAD_CAT_ID   = 20580
ELEMENT_SET_NO = 999
REV_AT_EPOCH   = 77068
BSTAR          = .22882E-3
MEAN_MOTION_DOT = .6899E-4
MEAN_MOTION_DDOT = 0

CCSDS_OMM_VERS = 2.0
CREATION_DATE  = 
ORIGINATOR     = 

OBJECT_NAME    = SL-16 R/B
OBJECT_ID      = 1990-046B
CENTER_NAME    = EARTH
REF_FRAME      = TEME
TIME_SYSTEM    = UTC
MEAN_ELEMENT_THEORY = SGP/SGP4

EPOCH          = 2026-02-21T03:43:40.868832
MEAN_MOTION    = 14.15014224
ECCENTRICITY   = .0015557
INCLINATION    = 71.0018
RA_OF_ASC_NODE = 332.6378
ARG_OF_PERICENTER = 322.4271
MEAN_ANOMALY   = 37.5763

EPHEMERIS_TYPE = 0
CLASSIFICATION_TYPE = U
NORAD_CAT_ID   = 20625
ELEMENT_SET_NO = 999
REV_AT_EPOCH   = 84605
BSTAR          = .10916E-3
MEAN_MOTION_DOT = .164E-5
MEAN_MOTION_DDOT = 0

CCSDS_OMM_VERS = 2.0
CREATION_DATE  = 
ORIGINATOR     = 

OBJECT_NAME    = COSMOS 2084
OBJECT_ID      = 1990-055A
CENTER_NAME    = EARTH
REF_FRAME      = TEME
TIME_SYSTEM    = UTC
MEAN_ELEMENT_THEORY = SGP/SGP4

EPOCH          = 2026-02-21T02:49:27.833664
MEAN_MOTION    = 15.05533626
ECCENTRICITY   = .0019631
INCLINATION    = 62.7909
RA_OF_ASC_NODE = 32.0925
ARG_OF_PERICENTER = 186.2771
MEAN_ANOMALY   = 173.8086

EPHEMERIS_TYPE = 0
CLASSIFICATION_TYPE = U
NORAD_CAT_ID   = 20663
ELEMENT_SET_NO = 999
REV_AT_EPOCH   = 93382
BSTAR          = .18827E-3
MEAN_MOTION_DOT = .2531E-4
MEAN_MOTION_DDOT = 0

CCSDS_OMM_VERS = 2.0
CREATION_DATE  = 
ORIGINATOR     = 

OBJECT_NAME    = SL-6 R/B(2)
OBJECT_ID      = 1990-055D
CENTER_NAME    = EARTH
REF_FRAME      = TEME
TIME_SYSTEM    = UTC
MEAN_ELEMENT_THEORY = SGP/SGP4

EPOCH          = 2026-02-21T03:27:50.613120
MEAN_MOTION    = 15.03508538
ECCENTRICITY   = .0022274
INCLINATION    = 62.7837
RA_OF_ASC_NODE = 310.1134
ARG_OF_PERICENTER = 342.6835
MEAN_ANOMALY   = 17.3501

EPHEMERIS_TYPE = 0
CLASSIFICATION_TYPE = U
NORAD_CAT_ID   = 20666
ELEMENT_SET_NO = 999
REV_AT_EPOCH   = 93570
BSTAR          = .15156E-3
MEAN_MOTION_DOT = .1886E-4
MEAN_MOTION_DDOT = 0

CCSDS_OMM_VERS = 2.0
CREATION_DATE  = 
ORIGINATOR     = 

OBJECT_NAME    = SL-8 R/B
OBJECT_ID      = 1990-078B
CENTER_NAME    = EARTH
REF_FRAME      = TEME
TIME_SYSTEM    = UTC
MEAN_ELEMENT_THEORY = SGP/SGP4

EPOCH          = 2026-02-21T01:00:14.719392
MEAN_MOTION    = 14.88469347
ECCENTRICITY   = .0365723
INCLINATION    = 82.8997
RA_OF_ASC_NODE = 266.2774
ARG_OF_PERICENTER = 69.8267
MEAN_ANOMALY   = 294.1890

EPHEMERIS_TYPE = 0
CLASSIFICATION_TYPE = U
NORAD_CAT_ID   = 20775
ELEMENT_SET_NO = 999
REV_AT_EPOCH   = 80682
BSTAR          = .37889E-3
MEAN_MOTION_DOT = .12926E-3
MEAN_MOTION_DDOT = 0

CCSDS_OMM_VERS = 2.0
CREATION_DATE  = 
ORIGINATOR     = 

OBJECT_NAME    = SL-8 R/B
OBJECT_ID      = 1991-006B
CENTER_NAME    = EARTH
REF_FRAME      = TEME
TIME_SYSTEM    = UTC
MEAN_ELEMENT_THEORY = SGP/SGP4

EPOCH          = 2026-02-20T22:19:25.404960
MEAN_MOTION    = 13.77492442
ECCENTRICITY   = .0023735
INCLINATION    = 82.9453
RA_OF_ASC_NODE = 182.5047
ARG_OF_PERICENTER = 83.1874
MEAN_ANOMALY   = 38.6838

EPHEMERIS_TYPE = 0
CLASSIFICATION_TYPE = U
NORAD_CAT_ID   = 21088
ELEMENT_SET_NO = 999
REV_AT_EPOCH   = 76176
BSTAR          = .20473E-4
MEAN_MOTION_DOT = .36E-6
MEAN_MOTION_DDOT = 0

CCSDS_OMM_VERS = 2.0
CREATION_DATE  = 
ORIGINATOR     = 

OBJECT_NAME    = OKEAN-3
OBJECT_ID      = 1991-039A
CENTER_NAME    = EARTH
REF_FRAME      = TEME
TIME_SYSTEM    = UTC
MEAN_ELEMENT_THEORY = SGP/SGP4

EPOCH          = 2026-02-20T20:31:01.097184
MEAN_MOTION    = 15.04672300
ECCENTRICITY   = .0015324
INCLINATION    = 82.5211
RA_OF_ASC_NODE = 353.1484
ARG_OF_PERICENTER = 33.2756
MEAN_ANOMALY   = 326.9431

EPHEMERIS_TYPE = 0
CLASSIFICATION_TYPE = U
NORAD_CAT_ID   = 21397
ELEMENT_SET_NO = 999
REV_AT_EPOCH   = 86250
BSTAR          = .2544E-3
MEAN_MOTION_DOT = .3613E-4
MEAN_MOTION_DDOT = 0

CCSDS_OMM_VERS = 2.0
CREATION_DATE  = 
ORIGINATOR     = 

OBJECT_NAME    = COSMOS 2151
OBJECT_ID      = 1991-042A
CENTER_NAME    = EARTH
REF_FRAME      = TEME
TIME_SYSTEM    = UTC
MEAN_ELEMENT_THEORY = SGP/SGP4

EPOCH          = 2026-02-21T03:22:11.563104
MEAN_MOTION    = 15.00037086
ECCENTRICITY   = .0014015
INCLINATION    = 82.4945
RA_OF_ASC_NODE = 99.6429
ARG_OF_PERICENTER = 113.2012
MEAN_ANOMALY   = 247.0690

EPHEMERIS_TYPE = 0
CLASSIFICATION_TYPE = U
NORAD_CAT_ID   = 21422
ELEMENT_SET_NO = 999
REV_AT_EPOCH   = 86071
BSTAR          = .13099E-3
MEAN_MOTION_DOT = .166E-4
MEAN_MOTION_DDOT = 0

